     2.100          NAVIGATION                              RINEX VERSION / TYPE
fic2rin                                 12/13/2017 00:10:32 PGM / RUN BY / DATE
                                                            END OF HEADER
10 17 12 12 14  0  0.0  .128095038235D-03  .682121026330D-11  .000000000000D+00
     .340000000000D+02 -.498437500000D+02  .482912972407D-08  .224692677478D+01
    -.250898301601D-05  .303236942273D-02  .705011188984D-05  .515366704559D+04
     .223200000000D+06 -.651925802231D-07  .129763895080D+01  .149011611938D-07
     .960142393785D+00  .244875000000D+03 -.288658968573D+01 -.819998441941D-08
    -.239652839646D-09  .100000000000D+01  .197900000000D+04  .000000000000D+00
     .240000000000D+01  .000000000000D+00  .186264514923D-08  .340000000000D+02
     .216006000000D+06  .400000000000D+01
12 17 12 12 14  0  0.0  .360717996955D-03 -.181898940355D-11  .000000000000D+00
     .360000000000D+02 -.478125000000D+02  .389980529969D-08  .297860415932D+01
    -.246055424213D-05  .666328752413D-02  .610575079918D-05  .515367695427D+04
     .223200000000D+06  .540167093277D-07 -.178010532787D+01 -.484287738800D-07
     .987759974248D+00  .274218750000D+03  .909749544366D+00 -.782211153663D-08
    -.258939357292D-09  .100000000000D+01  .197900000000D+04  .000000000000D+00
     .240000000000D+01  .000000000000D+00 -.125728547573D-07  .360000000000D+02
     .216006000000D+06  .400000000000D+01
13 17 12 12 14  0  0.0 -.947099179029D-04 -.227373675443D-12  .000000000000D+00
     .630000000000D+02  .526250000000D+02  .422517599554D-08 -.135431486074D+01
     .265613198280D-05  .366764864884D-02  .107269734144D-04  .515366467667D+04
     .223200000000D+06 -.409781932831D-07  .246548986500D+01  .875443220139D-07
     .968969778989D+00  .175093750000D+03  .165605579518D+01 -.787497088129D-08
    -.603596570791D-10  .100000000000D+01  .197900000000D+04  .000000000000D+00
     .340000000000D+01  .000000000000D+00 -.116415321827D-07  .630000000000D+02
     .216006000000D+06  .400000000000D+01
14 17 12 12 14  0  0.0 -.904328189790D-04 -.795807864051D-12  .000000000000D+00
     .790000000000D+02  .312500000000D+02  .450625913235D-08 -.182440490259D+00
     .169873237610D-05  .923891447019D-02  .105965882540D-04  .515372334480D+04
     .223200000000D+06 -.484287738800D-07  .242471410298D+01  .745058059692D-07
     .961471396343D+00  .178218750000D+03 -.195209416522D+01 -.811640950961D-08
    -.107504477993D-09  .100000000000D+01  .197900000000D+04  .000000000000D+00
     .340000000000D+01  .000000000000D+00 -.977888703346D-08  .790000000000D+02
     .216006000000D+06  .400000000000D+01
15 17 12 12 14  0  0.0 -.357392709702D-03  .000000000000D+00  .000000000000D+00
     .350000000000D+02  .277812500000D+02  .520021660989D-08 -.706725366634D+00
     .145286321640D-05  .100466235308D-01  .109653919935D-04  .515366124725D+04
     .223200000000D+06  .143423676491D-06  .226976214333D+01  .171363353729D-06
     .928506212468D+00  .149656250000D+03  .646198832478D+00 -.839070664947D-08
    -.174292974288D-09  .100000000000D+01  .197900000000D+04  .000000000000D+00
     .240000000000D+01  .000000000000D+00 -.107102096081D-07  .350000000000D+02
     .216006000000D+06  .400000000000D+01
16 17 12 12 14  0  0.0  .355229713023D-04 -.454747350886D-12  .000000000000D+00
     .660000000000D+02 -.425937500000D+02  .393337812670D-08  .103005667368D+01
    -.206381082535D-05  .954925024416D-02  .550784170628D-05  .515355058289D+04
     .223200000000D+06 -.104308128357D-06 -.176120609547D+01  .894069671631D-07
     .988206430513D+00  .288500000000D+03  .450367995566D+00 -.798961851397D-08
    -.325727853587D-09  .100000000000D+01  .197900000000D+04  .000000000000D+00
     .240000000000D+01  .000000000000D+00 -.107102096081D-07  .660000000000D+02
     .216006000000D+06  .400000000000D+01
18 17 12 12 14  0  0.0  .633405521512D-03  .227373675443D-12  .000000000000D+00
     .360000000000D+02 -.560625000000D+02  .559844748352D-08  .164215898336D+01
    -.323913991451D-05  .182339132298D-01  .661425292492D-05  .515364101601D+04
     .223200000000D+06 -.987201929092D-07  .124830956090D+01 -.497326254845D-06
     .925854221407D+00  .236781250000D+03 -.176649486617D+01 -.862071623029D-08
    -.213937482783D-09  .100000000000D+01  .197900000000D+04  .000000000000D+00
     .240000000000D+01  .000000000000D+00 -.111758708954D-07  .360000000000D+02
     .216006000000D+06  .400000000000D+01
19 17 12 12 14  0  0.0 -.470358412713D-03  .227373675443D-11  .000000000000D+00
     .670000000000D+02 -.104375000000D+02  .390623413890D-08  .309525887519D+01
    -.666826963425D-06  .976194557734D-02  .100042670965D-04  .515369573021D+04
     .223200000000D+06  .521540641785D-07 -.697441548063D+00 -.894069671631D-07
     .979148508437D+00  .194843750000D+03  .110131789589D+01 -.760424531877D-08
     .232509684962D-09  .100000000000D+01  .197900000000D+04  .000000000000D+00
     .240000000000D+01  .000000000000D+00 -.153668224812D-07  .670000000000D+02
     .216006000000D+06  .400000000000D+01
20 17 12 12 14  0  0.0  .495353247970D-03  .102318153949D-11  .000000000000D+00
     .690000000000D+02 -.484062500000D+02  .561880547437D-08 -.939562271443D+00
    -.241957604885D-05  .463518674951D-02  .667572021484D-05  .515375904655D+04
     .223200000000D+06 -.409781932831D-07  .119723187856D+01  .149011611938D-07
     .927286349450D+00  .233031250000D+03  .173656216226D+01 -.866536094707D-08
    -.220366321999D-09  .100000000000D+01  .197900000000D+04  .000000000000D+00
     .240000000000D+01  .000000000000D+00 -.838190317154D-08  .690000000000D+02
     .216006000000D+06  .400000000000D+01
21 17 12 12 14  0  0.0 -.453285872936D-03  .386535248253D-11  .000000000000D+00
     .420000000000D+02  .853125000000D+01  .503949562951D-08  .256600517123D+01
     .292435288429D-06  .241892002523D-01  .614114105701D-05  .515355175018D+04
     .223200000000D+06  .258907675743D-06  .208961743821D+00 -.197440385818D-06
     .942197626199D+00  .247375000000D+03 -.161758809657D+01 -.796818904991D-08
     .287154818294D-09  .100000000000D+01  .197900000000D+04  .000000000000D+00
     .240000000000D+01  .000000000000D+00 -.977888703346D-08  .420000000000D+02
     .216006000000D+06  .400000000000D+01
22 17 12 12 14  0  0.0 -.219865702093D-03 -.128466126625D-10  .000000000000D+00
     .740000000000D+02 -.419375000000D+02  .568237955106D-08 -.523145384614D+00
    -.216439366341D-05  .714507291559D-02  .665336847305D-05  .515364569283D+04
     .223200000000D+06 -.121071934700D-06  .124779763466D+01 -.223517417908D-07
     .923972232889D+00  .231312500000D+03 -.164387192145D+01 -.878250868388D-08
    -.177507393895D-09  .100000000000D+01  .197900000000D+04  .000000000000D+00
     .240000000000D+01  .000000000000D+00 -.176951289177D-07  .740000000000D+02
     .216006000000D+06  .400000000000D+01
23 17 12 12 14  0  0.0 -.218967441469D-03 -.113686837722D-12  .000000000000D+00
     .101000000000D+03  .316250000000D+02  .473233997810D-08 -.122772134569D+01
     .159628689289D-05  .118537574308D-01  .101514160633D-04  .515363669395D+04
     .223200000000D+06  .288709998131D-06  .233626186271D+01  .335276126862D-07
     .943826875138D+00  .172375000000D+03 -.241049229660D+01 -.803783480808D-08
    -.146434671020D-09  .100000000000D+01  .197900000000D+04  .000000000000D+00
     .340000000000D+01  .000000000000D+00 -.204890966415D-07  .101000000000D+03
     .216006000000D+06  .400000000000D+01
24 17 12 12 14  0  0.0 -.433647073805D-04 -.454747350886D-12  .000000000000D+00
     .370000000000D+02  .715000000000D+02  .500449417156D-08 -.176924419102D+01
     .369735062122D-05  .646751082968D-02  .528246164322D-05  .515366258049D+04
     .223200000000D+06 -.298023223877D-07 -.292591370343D+01 -.106170773506D-06
     .943634965155D+00  .269125000000D+03  .487275889957D+00 -.835641950699D-08
     .194650965137D-09  .100000000000D+01  .197900000000D+04  .000000000000D+00
     .240000000000D+01  .000000000000D+00  .279396772385D-08  .370000000000D+02
     .216006000000D+06  .400000000000D+01
25 17 12 12 14  0  0.0 -.504546798766D-03 -.625277607469D-11  .000000000000D+00
     .350000000000D+02 -.414687500000D+02  .418838874892D-08  .254242227494D+01
    -.216625630856D-05  .680266390555D-02  .551901757717D-05  .515371512985D+04
     .223200000000D+06  .279396772385D-07 -.183785065141D+01 -.109896063805D-06
     .975541073876D+00  .280781250000D+03  .805277660624D+00 -.803747765035D-08
    -.232509684962D-09  .100000000000D+01  .197900000000D+04  .000000000000D+00
     .240000000000D+01  .000000000000D+00  .558793544769D-08  .350000000000D+02
     .216006000000D+06  .400000000000D+01
26 17 12 12 14  0  0.0 -.328043475747D-03  .143245415529D-10  .000000000000D+00
     .360000000000D+02 -.380312500000D+02  .468840957679D-08  .207036390315D+01
    -.193342566490D-05  .236781814601D-02  .462867319584D-05  .515357798576D+04
     .223200000000D+06 -.186264514923D-08 -.185682693863D+01 -.298023223877D-07
     .957194635799D+00  .289031250000D+03 -.705527704861D-01 -.831998941810D-08
    -.243224416988D-09  .100000000000D+01  .197900000000D+04  .000000000000D+00
     .240000000000D+01  .000000000000D+00  .745058059692D-08  .360000000000D+02
     .216006000000D+06  .400000000000D+01
27 17 12 12 14  0  0.0  .355402473360D-03  .284217094304D-11  .000000000000D+00
     .350000000000D+02 -.338437500000D+02  .401445293236D-08  .201595658708D+00
    -.172853469849D-05  .514844385907D-02  .944361090660D-05  .515368069458D+04
     .223200000000D+06  .838190317154D-07 -.797907196997D+00  .558793544769D-07
     .976508156353D+00  .207031250000D+03  .358909135332D+00 -.786675625340D-08
     .105718689322D-09  .100000000000D+01  .197900000000D+04  .000000000000D+00
     .240000000000D+01  .000000000000D+00  .186264514923D-08  .350000000000D+02
     .216006000000D+06  .400000000000D+01
